{
  "type": "FeatureCollection",
  "features": [
    {
      "type": "Feature",
      "properties": {
        "norad_id": 66898,
        "name": "STARLINK-36065",
        "group": "last-30-days",
        "lat": 51.92968658281322,
        "lon": 123.52245288673929,
        "alt_km": 361.02088839373664,
        "timestamp": "2025-12-24T03:53:28.363103+00:00",
        "meta_object_name": "STARLINK-36065",
        "meta_object_id": "2025-283W",
        "meta_epoch": "2025-12-23T20:00:01.000224",
        "meta_mean_motion": 15.67935838,
        "meta_eccentricity": 0.0001142,
        "meta_inclination": 53.1594,
        "meta_ra_of_asc_node": 18.3153,
        "meta_arg_of_pericenter": 72.8657,
        "meta_mean_anomaly": 331.2928,
        "meta_ephemeris_type": 0,
        "meta_classification_type": "U",
        "meta_norad_cat_id": 66898,
        "meta_element_set_no": 999,
        "meta_rev_at_epoch": 421,
        "meta_bstar": -0.019636,
        "meta_mean_motion_dot": -0.01954609,
        "meta_mean_motion_ddot": 0,
        "tle_line1": "1 66898U 25283W   25357.83334491 -.01954609  00000+0 -19636-1 0  9995",
        "tle_line2": "2 66898  53.1594  18.3153 0001142  72.8657 331.2928 15.67935838  4210"
      },
      "geometry": {
        "type": "Point",
        "coordinates": [
          123.52245288673929,
          51.92968658281322
        ]
      }
    },
    {
      "type": "Feature",
      "properties": {
        "norad_id": 66899,
        "name": "STARLINK-36064",
        "group": "last-30-days",
        "lat": 51.44671741652169,
        "lon": 126.51510946087788,
        "alt_km": 361.06330195895316,
        "timestamp": "2025-12-24T03:53:28.363113+00:00",
        "meta_object_name": "STARLINK-36064",
        "meta_object_id": "2025-283X",
        "meta_epoch": "2025-12-23T20:00:01.000224",
        "meta_mean_motion": 15.67931217,
        "meta_eccentricity": 0.0001195,
        "meta_inclination": 53.1592,
        "meta_ra_of_asc_node": 18.3114,
        "meta_arg_of_pericenter": 72.6651,
        "meta_mean_anomaly": 333.4108,
        "meta_ephemeris_type": 0,
        "meta_classification_type": "U",
        "meta_norad_cat_id": 66899,
        "meta_element_set_no": 999,
        "meta_rev_at_epoch": 415,
        "meta_bstar": -0.019556,
        "meta_mean_motion_dot": -0.01947253,
        "meta_mean_motion_ddot": 0,
        "tle_line1": "1 66899U 25283X   25357.83334491 -.01947253  00000+0 -19556-1 0  9994",
        "tle_line2": "2 66899  53.1592  18.3114 0001195  72.6651 333.4108 15.67931217  4150"
      },
      "geometry": {
        "type": "Point",
        "coordinates": [
          126.51510946087788,
          51.44671741652169
        ]
      }
    },
    {
      "type": "Feature",
      "properties": {
        "norad_id": 66900,
        "name": "STARLINK-36074",
        "group": "last-30-days",
        "lat": 50.88881735263916,
        "lon": 129.44196757158034,
        "alt_km": 361.23701006020383,
        "timestamp": "2025-12-24T03:53:28.363123+00:00",
        "meta_object_name": "STARLINK-36074",
        "meta_object_id": "2025-283Y",
        "meta_epoch": "2025-12-23T20:00:01.000224",
        "meta_mean_motion": 15.67932921,
        "meta_eccentricity": 0.0001093,
        "meta_inclination": 53.1592,
        "meta_ra_of_asc_node": 18.3071,
        "meta_arg_of_pericenter": 68.2405,
        "meta_mean_anomaly": 339.7515,
        "meta_ephemeris_type": 0,
        "meta_classification_type": "U",
        "meta_norad_cat_id": 66900,
        "meta_element_set_no": 999,
        "meta_rev_at_epoch": 421,
        "meta_bstar": -0.019578,
        "meta_mean_motion_dot": -0.01949245,
        "meta_mean_motion_ddot": 0,
        "tle_line1": "1 66900U 25283Y   25357.83334491 -.01949245  00000+0 -19578-1 0  9994",
        "tle_line2": "2 66900  53.1592  18.3071 0001093  68.2405 339.7515 15.67932921  4211"
      },
      "geometry": {
        "type": "Point",
        "coordinates": [
          129.44196757158034,
          50.88881735263916
        ]
      }
    },
    {
      "type": "Feature",
      "properties": {
        "norad_id": 66901,
        "name": "STARLINK-36043",
        "group": "last-30-days",
        "lat": 50.26000065464107,
        "lon": 132.29373327589968,
        "alt_km": 361.3394585210099,
        "timestamp": "2025-12-24T03:53:28.363133+00:00",
        "meta_object_name": "STARLINK-36043",
        "meta_object_id": "2025-283Z",
        "meta_epoch": "2025-12-23T20:00:01.000224",
        "meta_mean_motion": 15.67930879,
        "meta_eccentricity": 0.0001073,
        "meta_inclination": 53.1595,
        "meta_ra_of_asc_node": 18.303,
        "meta_arg_of_pericenter": 69.6962,
        "meta_mean_anomaly": 340.2131,
        "meta_ephemeris_type": 0,
        "meta_classification_type": "U",
        "meta_norad_cat_id": 66901,
        "meta_element_set_no": 999,
        "meta_rev_at_epoch": 421,
        "meta_bstar": -0.019543,
        "meta_mean_motion_dot": -0.01945988,
        "meta_mean_motion_ddot": 0,
        "tle_line1": "1 66901U 25283Z   25357.83334491 -.01945988  00000+0 -19543-1 0  9997",
        "tle_line2": "2 66901  53.1595  18.3030 0001073  69.6962 340.2131 15.67930879  4212"
      },
      "geometry": {
        "type": "Point",
        "coordinates": [
          132.29373327589968,
          50.26000065464107
        ]
      }
    },
    {
      "type": "Feature",
      "properties": {
        "norad_id": 66902,
        "name": "STARLINK-35983",
        "group": "last-30-days",
        "lat": 49.56257283381482,
        "lon": 135.06614992973365,
        "alt_km": 361.3290127539967,
        "timestamp": "2025-12-24T03:53:28.363146+00:00",
        "meta_object_name": "STARLINK-35983",
        "meta_object_id": "2025-283AA",
        "meta_epoch": "2025-12-23T20:00:01.000224",
        "meta_mean_motion": 15.67922294,
        "meta_eccentricity": 0.0001293,
        "meta_inclination": 53.159,
        "meta_ra_of_asc_node": 18.2991,
        "meta_arg_of_pericenter": 68.8306,
        "meta_mean_anomaly": 342.9961,
        "meta_ephemeris_type": 0,
        "meta_classification_type": "U",
        "meta_norad_cat_id": 66902,
        "meta_element_set_no": 999,
        "meta_rev_at_epoch": 421,
        "meta_bstar": -0.019395,
        "meta_mean_motion_dot": -0.01932528,
        "meta_mean_motion_ddot": 0,
        "tle_line1": "1 66902U 25283AA  25357.83334491 -.01932528  00000+0 -19395-1 0  9999",
        "tle_line2": "2 66902  53.1590  18.2991 0001293  68.8306 342.9961 15.67922294  4212"
      },
      "geometry": {
        "type": "Point",
        "coordinates": [
          135.06614992973365,
          49.56257283381482
        ]
      }
    },
    {
      "type": "Feature",
      "properties": {
        "norad_id": 66903,
        "name": "STARLINK-36077",
        "group": "last-30-days",
        "lat": 48.798987130712476,
        "lon": 137.76379409575046,
        "alt_km": 361.5407851875834,
        "timestamp": "2025-12-24T03:53:28.363156+00:00",
        "meta_object_name": "STARLINK-36077",
        "meta_object_id": "2025-283AB",
        "meta_epoch": "2025-12-23T20:00:01.000224",
        "meta_mean_motion": 15.67934856,
        "meta_eccentricity": 0.0001135,
        "meta_inclination": 53.1588,
        "meta_ra_of_asc_node": 18.2955,
        "meta_arg_of_pericenter": 70.3029,
        "meta_mean_anomaly": 343.4409,
        "meta_ephemeris_type": 0,
        "meta_classification_type": "U",
        "meta_norad_cat_id": 66903,
        "meta_element_set_no": 999,
        "meta_rev_at_epoch": 421,
        "meta_bstar": -0.01963,
        "meta_mean_motion_dot": -0.01953964,
        "meta_mean_motion_ddot": 0,
        "tle_line1": "1 66903U 25283AB  25357.83334491 -.01953964  00000+0 -19630-1 0  9999",
        "tle_line2": "2 66903  53.1588  18.2955 0001135  70.3029 343.4409 15.67934856  4215"
      },
      "geometry": {
        "type": "Point",
        "coordinates": [
          137.76379409575046,
          48.798987130712476
        ]
      }
    },
    {
      "type": "Feature",
      "properties": {
        "norad_id": 66904,
        "name": "STARLINK-36059",
        "group": "last-30-days",
        "lat": 47.97699947465408,
        "lon": 140.3694943673785,
        "alt_km": 361.71784814030343,
        "timestamp": "2025-12-24T03:53:28.363166+00:00",
        "meta_object_name": "STARLINK-36059",
        "meta_object_id": "2025-283AC",
        "meta_epoch": "2025-12-23T20:00:01.000224",
        "meta_mean_motion": 15.67933875,
        "meta_eccentricity": 0.0001056,
        "meta_inclination": 53.1591,
        "meta_ra_of_asc_node": 18.2909,
        "meta_arg_of_pericenter": 68.9435,
        "meta_mean_anomaly": 346.7149,
        "meta_ephemeris_type": 0,
        "meta_classification_type": "U",
        "meta_norad_cat_id": 66904,
        "meta_element_set_no": 999,
        "meta_rev_at_epoch": 421,
        "meta_bstar": -0.019582,
        "meta_mean_motion_dot": -0.01949615,
        "meta_mean_motion_ddot": 0,
        "tle_line1": "1 66904U 25283AC  25357.83334491 -.01949615  00000+0 -19582-1 0  9994",
        "tle_line2": "2 66904  53.1591  18.2909 0001056  68.9435 346.7149 15.67933875  4212"
      },
      "geometry": {
        "type": "Point",
        "coordinates": [
          140.3694943673785,
          47.97699947465408
        ]
      }
    }
  ]
}